[{"OBJECT_NAME":"ORBCOMM FM06","OBJECT_ID":"1997-084G","EPOCH":"2026-03-09T15:06:31.906944","MEAN_MOTION":14.47270413,"ECCENTRICITY":0.0001937,"INCLINATION":45.0122,"RA_OF_ASC_NODE":171.8858,"ARG_OF_PERICENTER":196.1809,"MEAN_ANOMALY":301.713,"EPHEMERIS_TYPE":0,"CLASSIFICATION_TYPE":"U","NORAD_CAT_ID":25118,"ELEMENT_SET_NO":999,"REV_AT_EPOCH":47996,"BSTAR":0.00064878,"MEAN_MOTION_DOT":2.251e-5,"MEAN_MOTION_DDOT":0},{"OBJECT_NAME":"CZ-6A DEB","OBJECT_ID":"2022-151AAJ","EPOCH":"2026-03-09T15:29:48.174144","MEAN_MOTION":14.43196334,"ECCENTRICITY":0.00396806,"INCLINATION":98.7503,"RA_OF_ASC_NODE":108.5376,"ARG_OF_PERICENTER":221.5326,"MEAN_ANOMALY":138.2846,"EPHEMERIS_TYPE":0,"CLASSIFICATION_TYPE":"U","NORAD_CAT_ID":55886,"ELEMENT_SET_NO":999,"REV_AT_EPOCH":8203,"BSTAR":0.0019849678,"MEAN_MOTION_DOT":6.696e-5,"MEAN_MOTION_DDOT":0}]
